O3B MPOWER F1           
1 54755U 22174A   23356.89770083 -.00000017  00000+0  00000+0 0  9990
2 54755   0.0563  15.7016 0005983 269.1837 180.8085  5.00118409 19977
